YAOGAN-41               
1 58582U 23197A   26032.96134475 -.00000368  00000+0  00000+0 0  9998
2 58582   3.3798 311.2022 0009164 187.1834 103.0561  1.00274588  7966
OVZON-3                 
1 58698U 24003A   26032.89280984  .00000042  00000+0  00000+0 0  9990
2 58698   0.0151 135.8651 0000326 131.1438 246.1493  1.00272864  6089
INSAT-3DS               
1 58990U 24033A   26032.93480338 -.00000165  00000+0  00000+0 0  9995
2 58990   0.0511 264.6374 0002002  67.8322 218.2205  1.00269897 45713
MERAH PUTIH 2           
1 58995U 24035A   26032.94095675 -.00000368  00000+0  00000+0 0  9994
2 58995   0.0189  90.6084 0001287 221.9547 271.2472  1.00271966  7230
TJS-11                  
1 59020U 24037A   26032.30046015 -.00000372  00000+0  00000+0 0  9995
2 59020   4.3825 325.4535 0005929  13.0802  21.4315  1.00275060  7224
HULIANWAN GAOGUI-01 (H*)
1 59069U 24040A   26032.92518332  .00000146  00000+0  00000+0 0  9994
2 59069   0.0590 296.7994 0004104  44.0800 157.9483  1.00271021  5978
EUTELSAT 36D            
1 59346U 24059A   26032.92561666  .00000000  00000+0  00000+0 0  9999
2 59346   0.0269 100.5021 0000937 200.6515 200.0665  1.00279693  6791
PAKSAT-MM1              
1 59915U 24104A   26032.92613666  .00000144  00000+0  00000+0 0  9999
2 59915   0.0145  99.1339 0003670 207.0843 197.4415  1.00270577  6179
ASTRA 1P (SES-24)       
1 60086U 24115A   26032.88725214  .00000110  00000+0  00000+0 0  9993
2 60086   0.0861 305.5202 0005627 359.5455 165.6046  1.00269928  5842
GOES 19                 
1 60133U 24119A   26032.90368987 -.00000258  00000+0  00000+0 0  9997
2 60133   0.0030  32.7647 0001127 310.4683  38.9874  1.00271513  5603
ZHONGXING-3A            
1 60179U 24122A   26032.65347182 -.00000323  00000+0  00000+0 0  9990
2 60179   0.0130 128.5747 0000844 234.2029 105.8864  1.00269735  5955
TURKSAT 6A              
1 60233U 24127A   26032.90392245  .00000136  00000+0  00000+0 0  9995
2 60233   0.0541 236.1278 0003850  41.6172 221.7141  1.00273142  5667
HULIANWAN GAOGUI-02 (H*)
1 60327U 24135A   26032.16421940 -.00000182  00000+0  00000+0 0  9993
2 60327   0.0215  43.5697 0006414 281.2634  18.8140  1.00272730  6137
ZHONGXING-4A            
1 60606U 24151A   26032.94199676 -.00000372  00000+0  00000+0 0  9996
2 60606   1.6630 272.2313 0001642  61.3764 255.8422  1.00272432  5392
HULIANWAN GAOGUI-03 (H*)
1 61503U 24181A   26032.90325654 -.00000250  00000+0  00000+0 0  9994
2 61503   0.0207  45.6228 0000493 148.4592 186.0090  1.00266501  5462
DSN-3 (KIRAMEKI-3)      
1 61733U 24198A   26032.94711012 -.00000260  00000+0  00000+0 0  9999
2 61733   0.0083 270.3046 0001870  38.3067 308.5236  1.00270475  4566
KOREASAT 6A             
1 61910U 24206A   26032.94156341 -.00000372  00000+0  00000+0 0  9998
2 61910   0.0200 111.1460 0001149 193.5809 282.3601  1.00271027  4483
