[{"OBJECT_NAME":"YAOGAN-41","OBJECT_ID":"2023-197A","EPOCH":"2026-02-01T23:04:20.186400","MEAN_MOTION":1.00274588,"ECCENTRICITY":0.00091641,"INCLINATION":3.3798,"RA_OF_ASC_NODE":311.2022,"ARG_OF_PERICENTER":187.1834,"MEAN_ANOMALY":103.0561,"EPHEMERIS_TYPE":0,"CLASSIFICATION_TYPE":"U","NORAD_CAT_ID":58582,"ELEMENT_SET_NO":999,"REV_AT_EPOCH":796,"BSTAR":0,"MEAN_MOTION_DOT":-3.68e-6,"MEAN_MOTION_DDOT":0},{"OBJECT_NAME":"OVZON-3","OBJECT_ID":"2024-003A","EPOCH":"2026-02-01T21:25:38.770176","MEAN_MOTION":1.00272864,"ECCENTRICITY":3.266e-5,"INCLINATION":0.0151,"RA_OF_ASC_NODE":135.8651,"ARG_OF_PERICENTER":131.1438,"MEAN_ANOMALY":246.1493,"EPHEMERIS_TYPE":0,"CLASSIFICATION_TYPE":"U","NORAD_CAT_ID":58698,"ELEMENT_SET_NO":999,"REV_AT_EPOCH":608,"BSTAR":0,"MEAN_MOTION_DOT":4.2e-7,"MEAN_MOTION_DDOT":0},{"OBJECT_NAME":"INSAT-3DS","OBJECT_ID":"2024-033A","EPOCH":"2026-02-01T22:26:07.012032","MEAN_MOTION":1.00269897,"ECCENTRICITY":0.00020024,"INCLINATION":0.0511,"RA_OF_ASC_NODE":264.6374,"ARG_OF_PERICENTER":67.8322,"MEAN_ANOMALY":218.2205,"EPHEMERIS_TYPE":0,"CLASSIFICATION_TYPE":"U","NORAD_CAT_ID":58990,"ELEMENT_SET_NO":999,"REV_AT_EPOCH":4571,"BSTAR":0,"MEAN_MOTION_DOT":-1.65e-6,"MEAN_MOTION_DDOT":0},{"OBJECT_NAME":"MERAH PUTIH 2","OBJECT_ID":"2024-035A","EPOCH":"2026-02-01T22:34:58.663200","MEAN_MOTION":1.00271966,"ECCENTRICITY":0.00012875,"INCLINATION":0.0189,"RA_OF_ASC_NODE":90.6084,"ARG_OF_PERICENTER":221.9547,"MEAN_ANOMALY":271.2472,"EPHEMERIS_TYPE":0,"CLASSIFICATION_TYPE":"U","NORAD_CAT_ID":58995,"ELEMENT_SET_NO":999,"REV_AT_EPOCH":723,"BSTAR":0,"MEAN_MOTION_DOT":-3.68e-6,"MEAN_MOTION_DDOT":0},{"OBJECT_NAME":"TJS-11","OBJECT_ID":"2024-037A","EPOCH":"2026-02-01T07:12:39.756960","MEAN_MOTION":1.0027506,"ECCENTRICITY":0.0005929,"INCLINATION":4.3825,"RA_OF_ASC_NODE":325.4535,"ARG_OF_PERICENTER":13.0802,"MEAN_ANOMALY":21.4315,"EPHEMERIS_TYPE":0,"CLASSIFICATION_TYPE":"U","NORAD_CAT_ID":59020,"ELEMENT_SET_NO":999,"REV_AT_EPOCH":722,"BSTAR":0,"MEAN_MOTION_DOT":-3.72e-6,"MEAN_MOTION_DDOT":0},{"OBJECT_NAME":"HULIANWAN GAOGUI-01 (HG-01)","OBJECT_ID":"2024-040A","EPOCH":"2026-02-01T22:12:15.838848","MEAN_MOTION":1.00271021,"ECCENTRICITY":0.00041041,"INCLINATION":0.059,"RA_OF_ASC_NODE":296.7994,"ARG_OF_PERICENTER":44.08,"MEAN_ANOMALY":157.9483,"EPHEMERIS_TYPE":0,"CLASSIFICATION_TYPE":"U","NORAD_CAT_ID":59069,"ELEMENT_SET_NO":999,"REV_AT_EPOCH":597,"BSTAR":0,"MEAN_MOTION_DOT":1.46e-6,"MEAN_MOTION_DDOT":0},{"OBJECT_NAME":"EUTELSAT 36D","OBJECT_ID":"2024-059A","EPOCH":"2026-02-01T22:12:53.279424","MEAN_MOTION":1.00279693,"ECCENTRICITY":9.374e-5,"INCLINATION":0.0269,"RA_OF_ASC_NODE":100.5021,"ARG_OF_PERICENTER":200.6515,"MEAN_ANOMALY":200.0665,"EPHEMERIS_TYPE":0,"CLASSIFICATION_TYPE":"U","NORAD_CAT_ID":59346,"ELEMENT_SET_NO":999,"REV_AT_EPOCH":679,"BSTAR":0,"MEAN_MOTION_DOT":0,"MEAN_MOTION_DDOT":0},{"OBJECT_NAME":"PAKSAT-MM1","OBJECT_ID":"2024-104A","EPOCH":"2026-02-01T22:13:38.207424","MEAN_MOTION":1.00270577,"ECCENTRICITY":0.000367,"INCLINATION":0.0145,"RA_OF_ASC_NODE":99.1339,"ARG_OF_PERICENTER":207.0843,"MEAN_ANOMALY":197.4415,"EPHEMERIS_TYPE":0,"CLASSIFICATION_TYPE":"U","NORAD_CAT_ID":59915,"ELEMENT_SET_NO":999,"REV_AT_EPOCH":617,"BSTAR":0,"MEAN_MOTION_DOT":1.44e-6,"MEAN_MOTION_DDOT":0},{"OBJECT_NAME":"ASTRA 1P (SES-24)","OBJECT_ID":"2024-115A","EPOCH":"2026-02-01T21:17:38.584896","MEAN_MOTION":1.00269928,"ECCENTRICITY":0.00056271,"INCLINATION":0.0861,"RA_OF_ASC_NODE":305.5202,"ARG_OF_PERICENTER":359.5455,"MEAN_ANOMALY":165.6046,"EPHEMERIS_TYPE":0,"CLASSIFICATION_TYPE":"U","NORAD_CAT_ID":60086,"ELEMENT_SET_NO":999,"REV_AT_EPOCH":584,"BSTAR":0,"MEAN_MOTION_DOT":1.1e-6,"MEAN_MOTION_DDOT":0},{"OBJECT_NAME":"GOES 19","OBJECT_ID":"2024-119A","EPOCH":"2026-02-01T21:41:18.804768","MEAN_MOTION":1.00271513,"ECCENTRICITY":0.00011279,"INCLINATION":0.003,"RA_OF_ASC_NODE":32.7647,"ARG_OF_PERICENTER":310.4683,"MEAN_ANOMALY":38.9874,"EPHEMERIS_TYPE":0,"CLASSIFICATION_TYPE":"U","NORAD_CAT_ID":60133,"ELEMENT_SET_NO":999,"REV_AT_EPOCH":560,"BSTAR":0,"MEAN_MOTION_DOT":-2.58e-6,"MEAN_MOTION_DDOT":0},{"OBJECT_NAME":"ZHONGXING-3A","OBJECT_ID":"2024-122A","EPOCH":"2026-02-01T15:40:59.965248","MEAN_MOTION":1.00269735,"ECCENTRICITY":8.44e-5,"INCLINATION":0.013,"RA_OF_ASC_NODE":128.5747,"ARG_OF_PERICENTER":234.2029,"MEAN_ANOMALY":105.8864,"EPHEMERIS_TYPE":0,"CLASSIFICATION_TYPE":"U","NORAD_CAT_ID":60179,"ELEMENT_SET_NO":999,"REV_AT_EPOCH":595,"BSTAR":0,"MEAN_MOTION_DOT":-3.23e-6,"MEAN_MOTION_DDOT":0},{"OBJECT_NAME":"TURKSAT 6A","OBJECT_ID":"2024-127A","EPOCH":"2026-02-01T21:41:38.899680","MEAN_MOTION":1.00273142,"ECCENTRICITY":0.00038501,"INCLINATION":0.0541,"RA_OF_ASC_NODE":236.1278,"ARG_OF_PERICENTER":41.6172,"MEAN_ANOMALY":221.7141,"EPHEMERIS_TYPE":0,"CLASSIFICATION_TYPE":"U","NORAD_CAT_ID":60233,"ELEMENT_SET_NO":999,"REV_AT_EPOCH":566,"BSTAR":0,"MEAN_MOTION_DOT":1.36e-6,"MEAN_MOTION_DDOT":0},{"OBJECT_NAME":"HULIANWAN GAOGUI-02 (HG-02)","OBJECT_ID":"2024-135A","EPOCH":"2026-02-01T03:56:28.556160","MEAN_MOTION":1.0027273,"ECCENTRICITY":0.00064149,"INCLINATION":0.0215,"RA_OF_ASC_NODE":43.5697,"ARG_OF_PERICENTER":281.2634,"MEAN_ANOMALY":18.814,"EPHEMERIS_TYPE":0,"CLASSIFICATION_TYPE":"U","NORAD_CAT_ID":60327,"ELEMENT_SET_NO":999,"REV_AT_EPOCH":613,"BSTAR":0,"MEAN_MOTION_DOT":-1.82e-6,"MEAN_MOTION_DDOT":0},{"OBJECT_NAME":"ZHONGXING-4A","OBJECT_ID":"2024-151A","EPOCH":"2026-02-01T22:36:28.520064","MEAN_MOTION":1.00272432,"ECCENTRICITY":0.00016427,"INCLINATION":1.663,"RA_OF_ASC_NODE":272.2313,"ARG_OF_PERICENTER":61.3764,"MEAN_ANOMALY":255.8422,"EPHEMERIS_TYPE":0,"CLASSIFICATION_TYPE":"U","NORAD_CAT_ID":60606,"ELEMENT_SET_NO":999,"REV_AT_EPOCH":539,"BSTAR":0,"MEAN_MOTION_DOT":-3.72e-6,"MEAN_MOTION_DDOT":0},{"OBJECT_NAME":"HULIANWAN GAOGUI-03 (HG-03)","OBJECT_ID":"2024-181A","EPOCH":"2026-02-01T21:40:41.365056","MEAN_MOTION":1.00266501,"ECCENTRICITY":4.937e-5,"INCLINATION":0.0207,"RA_OF_ASC_NODE":45.6228,"ARG_OF_PERICENTER":148.4592,"MEAN_ANOMALY":186.009,"EPHEMERIS_TYPE":0,"CLASSIFICATION_TYPE":"U","NORAD_CAT_ID":61503,"ELEMENT_SET_NO":999,"REV_AT_EPOCH":546,"BSTAR":0,"MEAN_MOTION_DOT":-2.5e-6,"MEAN_MOTION_DDOT":0},{"OBJECT_NAME":"DSN-3 (KIRAMEKI-3)","OBJECT_ID":"2024-198A","EPOCH":"2026-02-01T22:43:50.314368","MEAN_MOTION":1.00270475,"ECCENTRICITY":0.00018706,"INCLINATION":0.0083,"RA_OF_ASC_NODE":270.3046,"ARG_OF_PERICENTER":38.3067,"MEAN_ANOMALY":308.5236,"EPHEMERIS_TYPE":0,"CLASSIFICATION_TYPE":"U","NORAD_CAT_ID":61733,"ELEMENT_SET_NO":999,"REV_AT_EPOCH":456,"BSTAR":0,"MEAN_MOTION_DOT":-2.6e-6,"MEAN_MOTION_DDOT":0},{"OBJECT_NAME":"KOREASAT 6A","OBJECT_ID":"2024-206A","EPOCH":"2026-02-01T22:35:51.078624","MEAN_MOTION":1.00271027,"ECCENTRICITY":0.00011498,"INCLINATION":0.02,"RA_OF_ASC_NODE":111.146,"ARG_OF_PERICENTER":193.5809,"MEAN_ANOMALY":282.3601,"EPHEMERIS_TYPE":0,"CLASSIFICATION_TYPE":"U","NORAD_CAT_ID":61910,"ELEMENT_SET_NO":999,"REV_AT_EPOCH":448,"BSTAR":0,"MEAN_MOTION_DOT":-3.72e-6,"MEAN_MOTION_DDOT":0}]
